LANDSAT 9               
1 49260U 21088A   23248.50597289 -.00000027  00000+0  41366-5 0  9998
2 49260  98.2239 317.4152 0001452  97.8977 262.2386 14.57096231103098
